[{"OBJECT_NAME":"YAOGAN-14","OBJECT_ID":"2012-021A","EPOCH":"2026-03-09T23:13:16.463424","MEAN_MOTION":15.26486019,"ECCENTRICITY":0.00056417,"INCLINATION":97.2863,"RA_OF_ASC_NODE":208.4378,"ARG_OF_PERICENTER":161.6562,"MEAN_ANOMALY":198.4882,"EPHEMERIS_TYPE":0,"CLASSIFICATION_TYPE":"U","NORAD_CAT_ID":38257,"ELEMENT_SET_NO":999,"REV_AT_EPOCH":77067,"BSTAR":0.00037795498,"MEAN_MOTION_DOT":9.798e-5,"MEAN_MOTION_DDOT":0},{"OBJECT_NAME":"STARLINK-35818","OBJECT_ID":"2025-265AA","EPOCH":"2026-03-09T22:04:38.697312","MEAN_MOTION":15.27597899,"ECCENTRICITY":0.00011308,"INCLINATION":42.9979,"RA_OF_ASC_NODE":277.0618,"ARG_OF_PERICENTER":295.7589,"MEAN_ANOMALY":64.3146,"EPHEMERIS_TYPE":0,"CLASSIFICATION_TYPE":"U","NORAD_CAT_ID":66540,"ELEMENT_SET_NO":999,"REV_AT_EPOCH":1714,"BSTAR":0.0010790483,"MEAN_MOTION_DOT":0.00029566,"MEAN_MOTION_DDOT":0}]
